STARLINK-1506           
1 45747U 20038T   26068.66028804  .00025380  00000+0  97997-3 0  9997
2 45747  53.0733 202.5028 0002514 227.7836 132.2949 15.26134655316688
STARLINK-36078          
1 67050U 25294W   26068.30866880  .00012880  00000+0  47667-3 0  9992
2 67050  43.0053  39.9878 0001366 280.7022  79.3676 15.27585363 14745
